1998-067WY              
1 60958U 98067WY  24293.37805938  .00280652  00000+0  28626-2 0  9999
2 60958  51.6351  57.7822 0003996  89.8490 270.2962 15.63623695  7930
SOYUZ-MS 26             
1 61043U 24162A   24293.59184479  .00037502  00000+0  65913-3 0  9999
2 61043  51.6388  59.2035 0009235  85.1312 275.0731 15.50081524477576
CREW DRAGON 9           
1 61447U 24178A   24293.59184479  .00037502  00000+0  65913-3 0  9994
2 61447  51.6388  59.2035 0009235  85.1312 275.0731 15.50081524  2972
CYSAT-1                 
1 61501U 98067WZ  24293.38358135  .00249801  00000+0  37577-2 0  9993
2 61501  51.6369  60.0627 0007973  94.9482 265.2419 15.53402575  1746
DORA                    
1 61502U 98067XA  24293.37876290  .00332487  00000+0  46914-2 0  9998
2 61502  51.6373  60.0303 0006128  68.0227 292.1415 15.54872780  1737
